[
    {
        "Altitude(m)": 617710.6944832823,
        "Argument of Periapsis(deg)": 0.0,
        "Eccentricity": 0.0,
        "Inclination(deg)": 60.0,
        "Latitude(deg)": -41.10280855693741,
        "Longitude(deg)": -40.03327664635075,
        "Mean Anomaly(deg)": -49.09089999999994,
        "RAAN(deg)": 90.0,
        "Satellite Name": "Test1 415",
        "Satellite Number": 415,
        "Semi-Major Axis(m)": 6980739.136638005,
        "Time(s)": 0
    },
    {
        "Altitude(m)": 617517.992499403,
        "Argument of Periapsis(deg)": 0.00010418945913296404,
        "Eccentricity": 0.0,
        "Inclination(deg)": 60.0,
        "Latitude(deg)": -40.6370145862818,
        "Longitude(deg)": -39.5364834669957,
        "Mean Anomaly(deg)": -48.47079385453811,
        "RAAN(deg)": 89.99957995086027,
        "Satellite Name": "Test1 415",
        "Satellite Number": 415,
        "Semi-Major Axis(m)": 6980739.136638005,
        "Time(s)": 10
    }
]